KAITUO 1B               
1 40912U 15049P   17343.69738583  .00001528  00000-0  77741-4 0  9998
2 40912  97.4505 348.7773 0014416 317.2665  97.8068 15.18269446122912
TIANWANG 1C (TW-1C)     
1 40926U 15051B   17343.80366598  .00009569  00000-0  19723-3 0  9990
2 40926  97.2083  22.1597 0008962 246.8207 167.4832 15.46069009124022
TIANWANG 1B (TW-1B)     
1 40927U 15051C   17343.80781331  .00009498  00000-0  20367-3 0  9994
2 40927  97.2174  22.0997 0008754 262.0030 152.1530 15.44909476123956
TIANWANG 1A (TW-1A)     
1 40928U 15051D   17343.75932347  .00003333  00000-0  92477-4 0  9998
2 40928  97.2078  16.3875 0010397 289.8566 137.0119 15.37565690123669
LAPAN-A2 (IO-86)        
1 40931U 15052B   17343.12166422  .00000606  00000-0 -46528-5 0  9995
2 40931   6.0025  65.3650 0012415 200.7345 159.2446 14.76557030118864
LQSAT                   
1 40958U 15057A   17343.78003937  .00000039  00000-0  13914-4 0  9993
2 40958  97.9626  55.8821 0017125 220.5925 139.4002 14.73005601116966
CHUBUSAT-2              
1 41338U 16012B   17343.58696314  .00000377  00000-0  22874-4 0  9993
2 41338  31.0040  78.1725 0013970 355.4919   4.5589 14.99884649 99343
CHUBUSAT-3              
1 41339U 16012C   17343.69136341  .00000398  00000-0  24380-4 0  9992
2 41339  31.0088  76.3813 0013764   3.5951 356.4780 15.00079212 99349
OUFTI-1                 
1 41458U 16025C   17343.80380984  .00002181  00000-0  11757-3 0  9990
2 41458  98.1647  31.3407 0173044  62.7122 299.1596 15.04036243 88966
E-ST@R-II               
1 41459U 16025D   17343.77989245  .00001660  00000-0  90708-4 0  9997
2 41459  98.1644  31.2239 0174513  63.1398 298.7542 15.03813167 88950
AAUSAT 4                
1 41460U 16025E   17343.72431542  .00002729  00000-0  14548-3 0  9990
2 41460  98.1580  31.4071 0166056  60.7667 301.0039 15.05011210 88985
NUSAT 1 (LO-87)         
1 41557U 16033B   17343.65602800  .00001479  00000-0  57098-4 0  9994
2 41557  97.4517  63.1314 0015563 106.3982 253.8969 15.27800961 85211
BEESAT-4                
1 41619U 16040W   17343.24213647  .00001696  00000-0  78273-4 0  9992
2 41619  97.4419  43.8093 0012122 168.6344 191.5168 15.21539434 69209
PRATHAM                 
1 41783U 16059A   17343.74362311  .00000067  00000-0  22450-4 0  9999
2 41783  98.1456  43.0937 0032910 332.2206  27.7237 14.62885932 64261
ALSAT 1N                
1 41789U 16059G   17343.72306230  .00000140  00000-0  35818-4 0  9995
2 41789  98.1462  43.9174 0027572 326.0314  33.9119 14.64108973 64291
NAYIF-1 (EO-88)         
1 42017U 17008BX  17343.88374066  .00001620  00000-0  70227-4 0  9991
2 42017  97.4744  44.8729 0005713 338.6678  21.4320 15.23816249 45239
LILACSAT-1              
1 42725U 98067ME  17343.80234918  .00014387  00000-0  17028-3 0  9997
2 42725  51.6375 237.9808 0004566 225.1207 134.9416 15.61526531 30855
MAX VALIER SAT          
1 42778U 17036P   17344.05162029  .00001665  00000-0  78284-4 0  9990
2 42778  97.4317  41.6643 0014201  13.9677 346.2562 15.20899606 25759
FOX-1B (AO-91)          
1 43017U 17073E   17343.77939223  .00000462  00000-0  41822-4 0  9996
2 43017  97.6930 277.9993 0260960 167.8345 192.9336 14.77792221  3136
